[{"spaceTrack":{"CCSDS_OMM_VERS":"2.0","COMMENT":"GENERATED VIA SPACE-TRACK.ORG API","CREATION_DATE":"2021-05-12T04:44:40","ORIGINATOR":"18 SPCS","OBJECT_NAME":"STARLINK-2032","OBJECT_ID":"2021-012AF","CENTER_NAME":"EARTH","REF_FRAME":"TEME","TIME_SYSTEM":"UTC","MEAN_ELEMENT_THEORY":"SGP4","EPOCH":"2021-05-11T22:00:00.999936","MEAN_MOTION":15.16805136,"ECCENTRICITY":0.0001531,"INCLINATION":53.0489,"RA_OF_ASC_NODE":45.152,"ARG_OF_PERICENTER":62.9498,"MEAN_ANOMALY":119.8713,"EPHEMERIS_TYPE":0,"CLASSIFICATION_TYPE":"U","NORAD_CAT_ID":47649,"ELEMENT_SET_NO":999,"REV_AT_EPOCH":181,"BSTAR":-0.057648,"MEAN_MOTION_DOT":-0.01063285,"MEAN_MOTION_DDOT":0,"SEMIMAJOR_AXIS":6893.641,"PERIOD":94.936,"APOAPSIS":516.561,"PERIAPSIS":514.45,"OBJECT_TYPE":"PAYLOAD","RCS_SIZE":"LARGE","COUNTRY_CODE":"US","LAUNCH_DATE":"2021-02-16","SITE":"AFETR","DECAY_DATE":null,"DECAYED":0,"FILE":3035157,"GP_ID":177106017,"TLE_LINE0":"0 STARLINK-2032","TLE_LINE1":"1 47649U 21012AF  21131.91667824 -.01063285  00000-0 -57648-1 0  9995","TLE_LINE2":"2 47649  53.0489  45.1520 0001531  62.9498 119.8713 15.16805136  1812"},"version":"v1.0","launch":"600f9a5e8f798e2a4d5f979c","longitude":77.51559768636719,"latitude":-8.04159479928458,"height_km":524.1526478860724,"velocity_kms":7.601488962085841,"id":"60354b0774350a0006fbc4b3"},{"spaceTrack":{"CCSDS_OMM_VERS":"2.0","COMMENT":"GENERATED VIA SPACE-TRACK.ORG API","CREATION_DATE":"2021-05-12T14:36:10","ORIGINATOR":"18 SPCS","OBJECT_NAME":"STARLINK-1985","OBJECT_ID":"2021-012M","CENTER_NAME":"EARTH","REF_FRAME":"TEME","TIME_SYSTEM":"UTC","MEAN_ELEMENT_THEORY":"SGP4","EPOCH":"2021-05-12T14:00:01.000224","MEAN_MOTION":15.73212682,"ECCENTRICITY":0.0002105,"INCLINATION":53.0481,"RA_OF_ASC_NODE":36.5741,"ARG_OF_PERICENTER":25.4772,"MEAN_ANOMALY":310.0015,"EPHEMERIS_TYPE":0,"CLASSIFICATION_TYPE":"U","NORAD_CAT_ID":47631,"ELEMENT_SET_NO":999,"REV_AT_EPOCH":1423,"BSTAR":-0.00024094,"MEAN_MOTION_DOT":-0.00034326,"MEAN_MOTION_DDOT":0,"SEMIMAJOR_AXIS":6727.859,"PERIOD":91.532,"APOAPSIS":351.14,"PERIAPSIS":348.308,"OBJECT_TYPE":"PAYLOAD","RCS_SIZE":"LARGE","COUNTRY_CODE":"US","LAUNCH_DATE":"2021-02-16","SITE":"AFETR","DECAY_DATE":null,"DECAYED":0,"FILE":3035464,"GP_ID":177112667,"TLE_LINE0":"0 STARLINK-1985","TLE_LINE1":"1 47631U 21012M   21132.58334491 -.00034326  00000-0 -24094-3 0  9995","TLE_LINE2":"2 47631  53.0481  36.5741 0002105  25.4772 310.0015 15.73212682 14232"},"version":"v1.0","launch":"600f9a5e8f798e2a4d5f979c","longitude":-125.18171736586648,"latitude":-14.323195395552812,"height_km":352.5779078900123,"velocity_kms":7.698463149322933,"id":"60354b0774350a0006fbc4b4"},{"spaceTrack":{"CCSDS_OMM_VERS":"2.0","COMMENT":"GENERATED VIA SPACE-TRACK.ORG API","CREATION_DATE":"2021-05-12T14:36:10","ORIGINATOR":"18 SPCS","OBJECT_NAME":"STARLINK-1983","OBJECT_ID":"2021-012L","CENTER_NAME":"EARTH","REF_FRAME":"TEME","TIME_SYSTEM":"UTC","MEAN_ELEMENT_THEORY":"SGP4","EPOCH":"2021-05-12T14:00:01.000224","MEAN_MOTION":15.1425371,"ECCENTRICITY":0.0001346,"INCLINATION":53.0511,"RA_OF_ASC_NODE":42.1301,"ARG_OF_PERICENTER":65.2502,"MEAN_ANOMALY":337.319,"EPHEMERIS_TYPE":0,"CLASSIFICATION_TYPE":"U","NORAD_CAT_ID":47630,"ELEMENT_SET_NO":999,"REV_AT_EPOCH":1415,"BSTAR":-0.061876,"MEAN_MOTION_DOT":-0.01061203,"MEAN_MOTION_DDOT":0,"SEMIMAJOR_AXIS":6901.382,"PERIOD":95.096,"APOAPSIS":524.176,"PERIAPSIS":522.318,"OBJECT_TYPE":"PAYLOAD","RCS_SIZE":"LARGE","COUNTRY_CODE":"US","LAUNCH_DATE":"2021-02-16","SITE":"AFETR","DECAY_DATE":null,"DECAYED":0,"FILE":3035463,"GP_ID":177112653,"TLE_LINE0":"0 STARLINK-1983","TLE_LINE1":"1 47630U 21012L   21132.58334491 -.01061203  00000-0 -61876-1 0  9996","TLE_LINE2":"2 47630  53.0511  42.1301 0001346  65.2502 337.3190 15.14253710 14158"},"version":"v1.0","launch":"600f9a5e8f798e2a4d5f979c","longitude":-103.54300025396101,"latitude":6.633165371443107,"height_km":524.3852954684471,"velocity_kms":7.602939245155099,"id":"60354b07ed181e0006a93bf0"},{"spaceTrack":{"CCSDS_OMM_VERS":"2.0","COMMENT":"GENERATED VIA SPACE-TRACK.ORG API","CREATION_DATE":"2021-05-12T14:36:10","ORIGINATOR":"18 SPCS","OBJECT_NAME":"STARLINK-1645","OBJECT_ID":"2021-012C","CENTER_NAME":"EARTH","REF_FRAME":"TEME","TIME_SYSTEM":"UTC","MEAN_ELEMENT_THEORY":"SGP4","EPOCH":"2021-05-12T14:00:01.000224","MEAN_MOTION":15.06362044,"ECCENTRICITY":0.0001878,"INCLINATION":53.0539,"RA_OF_ASC_NODE":62.0077,"ARG_OF_PERICENTER":68.2653,"MEAN_ANOMALY":167.8888,"EPHEMERIS_TYPE":0,"CLASSIFICATION_TYPE":"U","NORAD_CAT_ID":47622,"ELEMENT_SET_NO":999,"REV_AT_EPOCH":1388,"BSTAR":-0.00042449,"MEAN_MOTION_DOT":-0.00006592,"MEAN_MOTION_DDOT":0,"SEMIMAJOR_AXIS":6925.465,"PERIOD":95.595,"APOAPSIS":548.63,"PERIAPSIS":546.029,"OBJECT_TYPE":"PAYLOAD","RCS_SIZE":"LARGE","COUNTRY_CODE":"US","LAUNCH_DATE":"2021-02-16","SITE":"AFETR","DECAY_DATE":null,"DECAYED":0,"FILE":3035461,"GP_ID":177112624,"TLE_LINE0":"0 STARLINK-1645","TLE_LINE1":"1 47622U 21012C   21132.58334491 -.00006592  00000-0 -42449-3 0  9993","TLE_LINE2":"2 47622  53.0539  62.0077 0001878  68.2653 167.8888 15.06362044 13881"},"version":"v1.0","launch":"600f9a5e8f798e2a4d5f979c","longitude":101.62480327374202,"latitude":-13.40769534428259,"height_km":551.7027652072102,"velocity_kms":7.585941225742481,"id":"60354b07ed181e0006a93bf3"},{"spaceTrack":{"CCSDS_OMM_VERS":"2.0","COMMENT":"GENERATED VIA SPACE-TRACK.ORG API","CREATION_DATE":"2021-05-12T06:36:10","ORIGINATOR":"18 SPCS","OBJECT_NAME":"STARLINK-1609","OBJECT_ID":"2021-012B","CENTER_NAME":"EARTH","REF_FRAME":"TEME","TIME_SYSTEM":"UTC","MEAN_ELEMENT_THEORY":"SGP4","EPOCH":"2021-05-12T06:00:00.999648","MEAN_MOTION":15.06377704,"ECCENTRICITY":0.0002353,"INCLINATION":53.0546,"RA_OF_ASC_NODE":63.5062,"ARG_OF_PERICENTER":70.7729,"MEAN_ANOMALY":136.6368,"EPHEMERIS_TYPE":0,"CLASSIFICATION_TYPE":"U","NORAD_CAT_ID":47621,"ELEMENT_SET_NO":999,"REV_AT_EPOCH":1383,"BSTAR":0.0032096,"MEAN_MOTION_DOT":0.00047823,"MEAN_MOTION_DDOT":0,"SEMIMAJOR_AXIS":6925.417,"PERIOD":95.594,"APOAPSIS":548.911,"PERIAPSIS":545.652,"OBJECT_TYPE":"PAYLOAD","RCS_SIZE":"LARGE","COUNTRY_CODE":"US","LAUNCH_DATE":"2021-02-16","SITE":"AFETR","DECAY_DATE":null,"DECAYED":0,"FILE":3035196,"GP_ID":177107070,"TLE_LINE0":"0 STARLINK-1609","TLE_LINE1":"1 47621U 21012B   21132.25001157  .00047823  00000-0  32096-2 0  9992","TLE_LINE2":"2 47621  53.0546  63.5062 0002353  70.7729 136.6368 15.06377704 13830"},"version":"v1.0","launch":"600f9a5e8f798e2a4d5f979c","longitude":89.39835876055622,"latitude":2.6151685697745846,"height_km":548.1038459775609,"velocity_kms":7.589102019378357,"id":"60354b0774350a0006fbc4e2"},{"spaceTrack":{"CCSDS_OMM_VERS":"2.0","COMMENT":"GENERATED VIA SPACE-TRACK.ORG API","CREATION_DATE":"2021-05-12T04:44:40","ORIGINATOR":"18 SPCS","OBJECT_NAME":"STARLINK-2009","OBJECT_ID":"2021-012P","CENTER_NAME":"EARTH","REF_FRAME":"TEME","TIME_SYSTEM":"UTC","MEAN_ELEMENT_THEORY":"SGP4","EPOCH":"2021-05-11T22:00:00.999936","MEAN_MOTION":15.06404833,"ECCENTRICITY":0.0002269,"INCLINATION":53.0603,"RA_OF_ASC_NODE":64.9898,"ARG_OF_PERICENTER":78.0656,"MEAN_ANOMALY":260.7281,"EPHEMERIS_TYPE":0,"CLASSIFICATION_TYPE":"U","NORAD_CAT_ID":47633,"ELEMENT_SET_NO":999,"REV_AT_EPOCH":180,"BSTAR":-0.0016538,"MEAN_MOTION_DOT":-0.00024834,"MEAN_MOTION_DDOT":0,"SEMIMAJOR_AXIS":6925.334,"PERIOD":95.592,"APOAPSIS":548.77,"PERIAPSIS":545.627,"OBJECT_TYPE":"PAYLOAD","RCS_SIZE":"LARGE","COUNTRY_CODE":"US","LAUNCH_DATE":"2021-02-16","SITE":"AFETR","DECAY_DATE":null,"DECAYED":0,"FILE":3035157,"GP_ID":177106015,"TLE_LINE0":"0 STARLINK-2009","TLE_LINE1":"1 47633U 21012P   21131.91667824 -.00024834  00000-0 -16538-2 0  9998","TLE_LINE2":"2 47633  53.0603  64.9898 0002269  78.0656 260.7281 15.06404833  1806"},"version":"v1.0","launch":"600f9a5e8f798e2a4d5f979c","longitude":-118.29251208175519,"latitude":-33.47231771521307,"height_km":558.6938563936101,"velocity_kms":7.581519019632933,"id":"60354b0774350a0006fbc4e6"},{"spaceTrack":{"CCSDS_OMM_VERS":"2.0","COMMENT":"GENERATED VIA SPACE-TRACK.ORG API","CREATION_DATE":"2021-05-12T14:36:10","ORIGINATOR":"18 SPCS","OBJECT_NAME":"STARLINK-1992","OBJECT_ID":"2021-012N","CENTER_NAME":"EARTH","REF_FRAME":"TEME","TIME_SYSTEM":"UTC","MEAN_ELEMENT_THEORY":"SGP4","EPOCH":"2021-05-12T14:00:01.000224","MEAN_MOTION":15.72697554,"ECCENTRICITY":0.0002218,"INCLINATION":53.0484,"RA_OF_ASC_NODE":36.5636,"ARG_OF_PERICENTER":29.3751,"MEAN_ANOMALY":310.0053,"EPHEMERIS_TYPE":0,"CLASSIFICATION_TYPE":"U","NORAD_CAT_ID":47632,"ELEMENT_SET_NO":999,"REV_AT_EPOCH":1423,"BSTAR":0.005266,"MEAN_MOTION_DOT":0.00795785,"MEAN_MOTION_DDOT":0,"SEMIMAJOR_AXIS":6729.328,"PERIOD":91.562,"APOAPSIS":352.686,"PERIAPSIS":349.7,"OBJECT_TYPE":"PAYLOAD","RCS_SIZE":"LARGE","COUNTRY_CODE":"US","LAUNCH_DATE":"2021-02-16","SITE":"AFETR","DECAY_DATE":null,"DECAYED":0,"FILE":3035465,"GP_ID":177112675,"TLE_LINE0":"0 STARLINK-1992","TLE_LINE1":"1 47632U 21012N   21132.58334491  .00795785  00000-0  52660-2 0  9996","TLE_LINE2":"2 47632  53.0484  36.5636 0002218  29.3751 310.0053 15.72697554 14230"},"version":"v1.0","launch":"600f9a5e8f798e2a4d5f979c","longitude":-122.85712927644846,"latitude":-11.397364209521122,"height_km":352.3869147238893,"velocity_kms":7.698751919783357,"id":"60354b0774350a0006fbc4e5"}]